[{"OBJECT_NAME":"OPS 5712 (P\/L 160)","OBJECT_ID":"1967-053A","EPOCH":"2026-03-09T23:15:46.773504","MEAN_MOTION":14.76189959,"ECCENTRICITY":0.000418,"INCLINATION":69.9166,"RA_OF_ASC_NODE":281.2067,"ARG_OF_PERICENTER":223.4883,"MEAN_ANOMALY":136.5935,"EPHEMERIS_TYPE":0,"CLASSIFICATION_TYPE":"U","NORAD_CAT_ID":2826,"ELEMENT_SET_NO":999,"REV_AT_EPOCH":5158,"BSTAR":0.0012899504,"MEAN_MOTION_DOT":8.87e-5,"MEAN_MOTION_DDOT":0},{"OBJECT_NAME":"COSMOS 2251 DEB","OBJECT_ID":"1993-036QM","EPOCH":"2026-03-09T18:45:35.628768","MEAN_MOTION":14.77131495,"ECCENTRICITY":0.00047738,"INCLINATION":74.029,"RA_OF_ASC_NODE":313.6511,"ARG_OF_PERICENTER":318.5356,"MEAN_ANOMALY":107.9951,"EPHEMERIS_TYPE":0,"CLASSIFICATION_TYPE":"U","NORAD_CAT_ID":34396,"ELEMENT_SET_NO":999,"REV_AT_EPOCH":89630,"BSTAR":0.0017524276,"MEAN_MOTION_DOT":0.00012383,"MEAN_MOTION_DDOT":0}]
